[
    {
        "Altitude(m)": 707283.9085385405,
        "Argument of Periapsis(deg)": 0.004556048474650827,
        "Eccentricity": 0.0,
        "Inclination(deg)": 45.0,
        "Latitude(deg)": 45.043374875627485,
        "Longitude(deg)": -5.330067941997423,
        "Mean Anomaly(deg)": 86.43148665899234,
        "RAAN(deg)": 9.995699223416718,
        "Satellite Name": "Constellation 1 49",
        "Satellite Number": 49,
        "Semi-Major Axis(m)": 7083131.272910544,
        "Time(s)": 76
    },
    {
        "Altitude(m)": 707284.7645957312,
        "Argument of Periapsis(deg)": 0.004615996480896233,
        "Eccentricity": 0.0,
        "Inclination(deg)": 45.0,
        "Latitude(deg)": 45.047120603359474,
        "Longitude(deg)": -5.248608961624923,
        "Mean Anomaly(deg)": 86.49218779924223,
        "RAAN(deg)": 9.99564263425115,
        "Satellite Name": "Constellation 1 49",
        "Satellite Number": 49,
        "Semi-Major Axis(m)": 7083131.272910544,
        "Time(s)": 77
    },
    {
        "Altitude(m)": 707285.6061562543,
        "Argument of Periapsis(deg)": 0.004675944487141638,
        "Eccentricity": 0.0,
        "Inclination(deg)": 45.0,
        "Latitude(deg)": 45.050802237284564,
        "Longitude(deg)": -5.167138915054923,
        "Mean Anomaly(deg)": 86.55288893949214,
        "RAAN(deg)": 9.99558604508558,
        "Satellite Name": "Constellation 1 49",
        "Satellite Number": 49,
        "Semi-Major Axis(m)": 7083131.272910544,
        "Time(s)": 78
    },
    {
        "Altitude(m)": 707286.4332152319,
        "Argument of Periapsis(deg)": 0.004735892493387044,
        "Eccentricity": 0.0,
        "Inclination(deg)": 45.0,
        "Latitude(deg)": 45.05441976109565,
        "Longitude(deg)": -5.085657990507058,
        "Mean Anomaly(deg)": 86.61359007974204,
        "RAAN(deg)": 9.995529455920009,
        "Satellite Name": "Constellation 1 49",
        "Satellite Number": 49,
        "Semi-Major Axis(m)": 7083131.272910544,
        "Time(s)": 79
    },
    {
        "Altitude(m)": 707287.2457678549,
        "Argument of Periapsis(deg)": 0.004795840499632449,
        "Eccentricity": 0.0,
        "Inclination(deg)": 45.0,
        "Latitude(deg)": 45.057973158764526,
        "Longitude(deg)": -5.0041663763945285,
        "Mean Anomaly(deg)": 86.67429121999193,
        "RAAN(deg)": 9.99547286675444,
        "Satellite Name": "Constellation 1 49",
        "Satellite Number": 49,
        "Semi-Major Axis(m)": 7083131.272910544,
        "Time(s)": 80
    },
    {
        "Altitude(m)": 707288.0438094169,
        "Argument of Periapsis(deg)": 0.004855788505877855,
        "Eccentricity": 0.0,
        "Inclination(deg)": 45.0,
        "Latitude(deg)": 45.0614624145421,
        "Longitude(deg)": -4.922664261320677,
        "Mean Anomaly(deg)": 86.73499236024183,
        "RAAN(deg)": 9.995416277588872,
        "Satellite Name": "Constellation 1 49",
        "Satellite Number": 49,
        "Semi-Major Axis(m)": 7083131.272910544,
        "Time(s)": 81
    },
    {
        "Altitude(m)": 707288.8273352801,
        "Argument of Periapsis(deg)": 0.00491573651212326,
        "Eccentricity": 0.0,
        "Inclination(deg)": 45.0,
        "Latitude(deg)": 45.06488751295866,
        "Longitude(deg)": -4.8411520021726755,
        "Mean Anomaly(deg)": 86.79569350049172,
        "RAAN(deg)": 9.995359688423301,
        "Satellite Name": "Constellation 1 49",
        "Satellite Number": 49,
        "Semi-Major Axis(m)": 7083131.272910544,
        "Time(s)": 82
    },
    {
        "Altitude(m)": 707289.5963409032,
        "Argument of Periapsis(deg)": 0.004975684518368666,
        "Eccentricity": 0.0,
        "Inclination(deg)": 45.0,
        "Latitude(deg)": 45.06824843882516,
        "Longitude(deg)": -4.759629451730588,
        "Mean Anomaly(deg)": 86.85639464074163,
        "RAAN(deg)": 9.99530309925773,
        "Satellite Name": "Constellation 1 49",
        "Satellite Number": 49,
        "Semi-Major Axis(m)": 7083131.272910544,
        "Time(s)": 83
    },
    {
        "Altitude(m)": 707290.3508218225,
        "Argument of Periapsis(deg)": 0.005035632524614072,
        "Eccentricity": 0.0,
        "Inclination(deg)": 45.0,
        "Latitude(deg)": 45.07154517723189,
        "Longitude(deg)": -4.6780969672456765,
        "Mean Anomaly(deg)": 86.91709578099153,
        "RAAN(deg)": 9.995246510092162,
        "Satellite Name": "Constellation 1 49",
        "Satellite Number": 49,
        "Semi-Major Axis(m)": 7083131.272910544,
        "Time(s)": 84
    },
    {
        "Altitude(m)": 707291.0907736596,
        "Argument of Periapsis(deg)": 0.0050955805308594785,
        "Eccentricity": 0.0,
        "Inclination(deg)": 45.0,
        "Latitude(deg)": 45.07477771354994,
        "Longitude(deg)": -4.596554738049406,
        "Mean Anomaly(deg)": 86.97779692124142,
        "RAAN(deg)": 9.995189920926594,
        "Satellite Name": "Constellation 1 49",
        "Satellite Number": 49,
        "Semi-Major Axis(m)": 7083131.272910544,
        "Time(s)": 85
    },
    {
        "Altitude(m)": 707291.8161921325,
        "Argument of Periapsis(deg)": 0.005155528537104883,
        "Eccentricity": 0.0,
        "Inclination(deg)": 45.0,
        "Latitude(deg)": 45.07794603343121,
        "Longitude(deg)": -4.5150029536469205,
        "Mean Anomaly(deg)": 87.03849806149132,
        "RAAN(deg)": 9.995133331761023,
        "Satellite Name": "Constellation 1 49",
        "Satellite Number": 49,
        "Semi-Major Axis(m)": 7083131.272910544,
        "Time(s)": 86
    },
    {
        "Altitude(m)": 707292.5270730315,
        "Argument of Periapsis(deg)": 0.0052154765433502885,
        "Eccentricity": 0.0,
        "Inclination(deg)": 45.0,
        "Latitude(deg)": 45.081050122808726,
        "Longitude(deg)": -4.4334418037138885,
        "Mean Anomaly(deg)": 87.09919920174123,
        "RAAN(deg)": 9.995076742595455,
        "Satellite Name": "Constellation 1 49",
        "Satellite Number": 49,
        "Semi-Major Axis(m)": 7083131.272910544,
        "Time(s)": 87
    },
    {
        "Altitude(m)": 707293.2234122358,
        "Argument of Periapsis(deg)": 0.005275424549595694,
        "Eccentricity": 0.0,
        "Inclination(deg)": 45.0,
        "Latitude(deg)": 45.084089967896915,
        "Longitude(deg)": -4.351871478093181,
        "Mean Anomaly(deg)": 87.15990034199112,
        "RAAN(deg)": 9.995020153429884,
        "Satellite Name": "Constellation 1 49",
        "Satellite Number": 49,
        "Semi-Major Axis(m)": 7083131.272910544,
        "Time(s)": 88
    },
    {
        "Altitude(m)": 707293.9052057068,
        "Argument of Periapsis(deg)": 0.0053353725558411,
        "Eccentricity": 0.0,
        "Inclination(deg)": 45.0,
        "Latitude(deg)": 45.087065555191614,
        "Longitude(deg)": -4.27029233488845,
        "Mean Anomaly(deg)": 87.22060148224102,
        "RAAN(deg)": 9.994963564264314,
        "Satellite Name": "Constellation 1 49",
        "Satellite Number": 49,
        "Semi-Major Axis(m)": 7083131.272910544,
        "Time(s)": 89
    },
    {
        "Altitude(m)": 707294.5724495028,
        "Argument of Periapsis(deg)": 0.005395320562086505,
        "Eccentricity": 0.0,
        "Inclination(deg)": 45.0,
        "Latitude(deg)": 45.08997687147155,
        "Longitude(deg)": -4.188704228072892,
        "Mean Anomaly(deg)": 87.28130262249093,
        "RAAN(deg)": 9.994906975098745,
        "Satellite Name": "Constellation 1 49",
        "Satellite Number": 49,
        "Semi-Major Axis(m)": 7083131.272910544,
        "Time(s)": 90
    },
    {
        "Altitude(m)": 707295.2251397495,
        "Argument of Periapsis(deg)": 0.00545526856833191,
        "Eccentricity": 0.0,
        "Inclination(deg)": 45.0,
        "Latitude(deg)": 45.092823903796855,
        "Longitude(deg)": -4.10710751606783,
        "Mean Anomaly(deg)": 87.34200376274082,
        "RAAN(deg)": 9.994850385933177,
        "Satellite Name": "Constellation 1 49",
        "Satellite Number": 49,
        "Semi-Major Axis(m)": 7083131.272910544,
        "Time(s)": 91
    },
    {
        "Altitude(m)": 707295.863272675,
        "Argument of Periapsis(deg)": 0.005515216574577317,
        "Eccentricity": 0.0,
        "Inclination(deg)": 45.0,
        "Latitude(deg)": 45.09560663951045,
        "Longitude(deg)": -4.025502389351488,
        "Mean Anomaly(deg)": 87.40270490299072,
        "RAAN(deg)": 9.994793796767606,
        "Satellite Name": "Constellation 1 49",
        "Satellite Number": 49,
        "Semi-Major Axis(m)": 7083131.272910544,
        "Time(s)": 92
    },
    {
        "Altitude(m)": 707296.4868445775,
        "Argument of Periapsis(deg)": 0.005575164580822722,
        "Eccentricity": 0.0,
        "Inclination(deg)": 45.0,
        "Latitude(deg)": 45.09832506623815,
        "Longitude(deg)": -3.9438890385525767,
        "Mean Anomaly(deg)": 87.46340604324061,
        "RAAN(deg)": 9.994737207602036,
        "Satellite Name": "Constellation 1 49",
        "Satellite Number": 49,
        "Semi-Major Axis(m)": 7083131.272910544,
        "Time(s)": 93
    },
    {
        "Altitude(m)": 707297.0958518486,
        "Argument of Periapsis(deg)": 0.005635112587068129,
        "Eccentricity": 0.0,
        "Inclination(deg)": 45.0,
        "Latitude(deg)": 45.10097917188875,
        "Longitude(deg)": -3.862267654446913,
        "Mean Anomaly(deg)": 87.52410718349051,
        "RAAN(deg)": 9.994680618436467,
        "Satellite Name": "Constellation 1 49",
        "Satellite Number": 49,
        "Semi-Major Axis(m)": 7083131.272910544,
        "Time(s)": 94
    }
]